[{"OBJECT_NAME":"STARLINK-5920","OBJECT_ID":"2023-037X","EPOCH":"2026-03-09T22:11:22.157664","MEAN_MOTION":14.98330041,"ECCENTRICITY":0.00027806,"INCLINATION":69.9981,"RA_OF_ASC_NODE":283.935,"ARG_OF_PERICENTER":270.2214,"MEAN_ANOMALY":89.8627,"EPHEMERIS_TYPE":0,"CLASSIFICATION_TYPE":"U","NORAD_CAT_ID":55935,"ELEMENT_SET_NO":999,"REV_AT_EPOCH":16401,"BSTAR":-3.4794604e-5,"MEAN_MOTION_DOT":-5.08e-6,"MEAN_MOTION_DDOT":0},{"OBJECT_NAME":"COSMOS 886 DEB","OBJECT_ID":"1976-126AU","EPOCH":"2026-03-09T14:38:52.099872","MEAN_MOTION":13.0403614,"ECCENTRICITY":0.0887804,"INCLINATION":65.7048,"RA_OF_ASC_NODE":353.5736,"ARG_OF_PERICENTER":82.996,"MEAN_ANOMALY":287.1083,"EPHEMERIS_TYPE":0,"CLASSIFICATION_TYPE":"U","NORAD_CAT_ID":9954,"ELEMENT_SET_NO":999,"REV_AT_EPOCH":61410,"BSTAR":0.00044012,"MEAN_MOTION_DOT":9.3e-6,"MEAN_MOTION_DDOT":0}]
